[{"OBJECT_NAME":"STARLINK-34426","OBJECT_ID":"2025-126B","EPOCH":"2026-03-09T22:52:14.441952","MEAN_MOTION":14.98335264,"ECCENTRICITY":0.00026432,"INCLINATION":70.0025,"RA_OF_ASC_NODE":33.6984,"ARG_OF_PERICENTER":264.5117,"MEAN_ANOMALY":95.5741,"EPHEMERIS_TYPE":0,"CLASSIFICATION_TYPE":"U","NORAD_CAT_ID":64345,"ELEMENT_SET_NO":999,"REV_AT_EPOCH":4072,"BSTAR":0.00033612292,"MEAN_MOTION_DOT":3.92e-5,"MEAN_MOTION_DDOT":0},{"OBJECT_NAME":"CZ-4B DEB","OBJECT_ID":"1999-057BZ","EPOCH":"2026-03-09T10:47:31.286688","MEAN_MOTION":14.9004764,"ECCENTRICITY":0.00449145,"INCLINATION":98.5631,"RA_OF_ASC_NODE":129.7133,"ARG_OF_PERICENTER":286.2462,"MEAN_ANOMALY":73.3815,"EPHEMERIS_TYPE":0,"CLASSIFICATION_TYPE":"U","NORAD_CAT_ID":26187,"ELEMENT_SET_NO":999,"REV_AT_EPOCH":39955,"BSTAR":0.00034061798,"MEAN_MOTION_DOT":3.283e-5,"MEAN_MOTION_DDOT":0}]
